<?xml version="1.0" encoding="UTF-8" standalone="yes"?>
<ndm>
    <oem id="CCSDS_OEM_VERS" version="2.0">
        <header>
            <CREATION_DATE>2021-288T20:03:49.124Z</CREATION_DATE>
            <ORIGINATOR>JSC</ORIGINATOR>
        </header>
        <body>
            <segment>
                <metadata>
                    <OBJECT_NAME>ISS</OBJECT_NAME>
                    <OBJECT_ID>1998-067-A</OBJECT_ID>
                    <CENTER_NAME>EARTH</CENTER_NAME>
                    <REF_FRAME>EME2000</REF_FRAME>
                    <TIME_SYSTEM>UTC</TIME_SYSTEM>
                    <START_TIME>2021-288T12:58:39.498Z</START_TIME>
                    <STOP_TIME>2021-303T12:58:39.498Z</STOP_TIME>
                </metadata>
                <data>
                    <COMMENT>Units are in kg and m^2</COMMENT>
                    <COMMENT>MASS=454410.00</COMMENT>
                    <COMMENT>DRAG_AREA=1451.80</COMMENT>
                    <COMMENT>DRAG_COEFF=1.45</COMMENT>
                    <COMMENT>SOLAR_RAD_AREA=0.00</COMMENT>
                    <COMMENT>SOLAR_RAD_COEFF=0.00</COMMENT>
                    <COMMENT>Orbits start at the ascending node epoch </COMMENT>
                    <COMMENT>ISS first asc. node: EPOCH = 2021-10-15T13:18:31.032 $ ORBIT = 2724 $ LAN(DEG) = -116.36968</COMMENT>
                    <COMMENT>ISS last asc. node : EPOCH = 2021-10-30T12:35:00.165 $ ORBIT = 2956 $ LAN(DEG) = 165.73531</COMMENT>
                    <COMMENT>Begin sequence of events</COMMENT>
                    <COMMENT>TRAJECTORY EVENT SUMMARY:</COMMENT>
                    <COMMENT></COMMENT>
                    <COMMENT>|       EVENT        |       TIG        | ORB |   DV    |   HA    |   HP    |</COMMENT>
                    <COMMENT>|                    |       GMT        |     |   M/S   |   KM    |   KM    |</COMMENT>
                    <COMMENT>|                    |                  |     |  (F/S)  |  (NM)   |  (NM)   |</COMMENT>
                    <COMMENT>=============================================================================</COMMENT>
                    <COMMENT> 64S Undock            290:01:13:00.000             0.0     428.7     411.8</COMMENT>
                    <COMMENT>                                                   (0.0)   (231.5)   (222.3)</COMMENT>
                    <COMMENT></COMMENT>
                    <COMMENT> 78P_relo              293:23:42:30.000             0.0     428.4     412.0</COMMENT>
                    <COMMENT>                                                   (0.0)   (231.3)   (222.4)</COMMENT>
                    <COMMENT></COMMENT>
                    <COMMENT> 78P_relo              295:04:31:19.000             0.0     428.1     412.2</COMMENT>
                    <COMMENT>                                                   (0.0)   (231.1)   (222.6)</COMMENT>
                    <COMMENT></COMMENT>
                    <COMMENT> 79P Launch            301:00:00:32.000             0.0     427.5     412.5</COMMENT>
                    <COMMENT>                                                   (0.0)   (230.8)   (222.8)</COMMENT>
                    <COMMENT></COMMENT>
                    <COMMENT> 79P Docking           303:01:33:30.000             0.0     427.0     412.8</COMMENT>
                    <COMMENT>                                                   (0.0)   (230.6)   (222.9)</COMMENT>
                    <COMMENT></COMMENT>
                    <COMMENT> SpX Crew-3 Launch     303:06:43:42.000             0.0     427.3     412.7</COMMENT>
                    <COMMENT>                                                   (0.0)   (230.7)   (222.9)</COMMENT>
                    <COMMENT></COMMENT>
                    <COMMENT>=============================================================================</COMMENT>
                    <COMMENT>End sequence of events</COMMENT>
                    <stateVector>
                        <EPOCH>2021-290T16:13:00.000Z</EPOCH>
                        <X units="km">2442.9886417716898</X>
                        <Y units="km">5063.7210699387397</Y>
                        <Z units="km">-3834.3121867587702</Z>
                        <X_DOT units="km/s">-3.9224017853597699</X_DOT>
                        <Y_DOT units="km/s">5.0591944748275797</Y_DOT>
                        <Z_DOT units="km/s">4.1877878133975104</Z_DOT>
                    </stateVector>
                    <stateVector>
                        <EPOCH>2021-290T16:17:00.000Z</EPOCH>
                        <X units="km">1424.5807272827999</X>
                        <Y units="km">6079.9693237493602</Y>
                        <Z units="km">-2702.2615713530599</Z>
                        <X_DOT units="km/s">-4.5129079369824296</X_DOT>
                        <Y_DOT units="km/s">3.3576090959999099</Y_DOT>
                        <Z_DOT units="km/s">5.1887319317906604</Z_DOT>
                    </stateVector>
                    <stateVector>
                        <EPOCH>2021-290T16:21:00.000Z</EPOCH>
                        <X units="km">302.96441149400198</X>
                        <Y units="km">6655.6264649877003</Y>
                        <Z units="km">-1373.8576144364099</Z>
                        <X_DOT units="km/s">-4.77705715577408</X_DOT>
                        <Y_DOT units="km/s">1.40983434642029</Y_DOT>
                        <Z_DOT units="km/s">5.8138667002172104</Z_DOT>
                    </stateVector>
                    <stateVector>
                        <EPOCH>2021-290T16:25:00.000Z</EPOCH>
                        <X units="km">-840.61475495902596</X>
                        <Y units="km">6748.2693575994599</Y>
                        <Z units="km">54.505797464186998</Z>
                        <X_DOT units="km/s">-4.6946635521659896</X_DOT>
                        <Y_DOT units="km/s">-0.64291841977562003</Y_DOT>
                        <Z_DOT units="km/s">6.0164390293993097</Z_DOT>
                    </stateVector>
                    <stateVector>
                        <EPOCH>2021-290T16:29:00.000Z</EPOCH>
                        <X units="km">-1923.1025772719599</X>
                        <Y units="km">6350.6144777185</Y>
                        <Z units="km">1478.87808599247</Z>
                        <X_DOT units="km/s">-4.27097652007145</X_DOT>
                        <Y_DOT units="km/s">-2.65089910783353</Y_DOT>
                        <Z_DOT units="km/s">5.7806679284687599</Z_DOT>
                    </stateVector>
                    <stateVector>
                        <EPOCH>2021-290T16:33:00.000Z</EPOCH>
                        <X units="km">-2865.7571200267498</X>
                        <Y units="km">5491.2184868044596</Y>
                        <Z units="km">2795.4067175195501</Z>
                        <X_DOT units="km/s">-3.53648708094634</X_DOT>
                        <Y_DOT units="km/s">-4.46709571138675</Y_DOT>
                        <Z_DOT units="km/s">5.1232039635651203</Z_DOT>
                    </stateVector>
                    <stateVector>
                        <EPOCH>2021-290T16:37:00.000Z</EPOCH>
                        <X units="km">-3599.9845571221499</X>
                        <Y units="km">4232.4534065018997</Y>
                        <Z units="km">3908.0442259766401</Z>
                        <X_DOT units="km/s">-2.54473122055937</X_DOT>
                        <Y_DOT units="km/s">-5.9585518104936703</Y_DOT>
                        <Z_DOT units="km/s">4.0920194486619597</Z_DOT>
                    </stateVector>
                    <stateVector>
                        <EPOCH>2021-290T16:41:00.000Z</EPOCH>
                        <X units="km">-4072.3997291143201</X>
                        <Y units="km">2665.8800607231901</Y>
                        <Z units="km">4735.6587364432098</Z>
                        <X_DOT units="km/s">-1.3680661572489901</X_DOT>
                        <Y_DOT units="km/s">-7.01650467515746</Y_DOT>
                        <Z_DOT units="km/s">2.7625896705742399</Z_DOT>
                    </stateVector>
                    <stateVector>
                        <EPOCH>2021-290T16:45:00.000Z</EPOCH>
                        <X units="km">-4248.6945745257499</X>
                        <Y units="km">905.45585871953597</Y>
                        <Z units="km">5217.9485133890003</Z>
                        <X_DOT units="km/s">-0.092114177523650004</X_DOT>
                        <Y_DOT units="km/s">-7.5641423345660499</Y_DOT>
                        <Z_DOT units="km/s">1.23191094431696</Z_DOT>
                    </stateVector>
                    <stateVector>
                        <EPOCH>2021-290T16:49:00.000Z</EPOCH>
                        <X units="km">-4116.0809561773603</X>
                        <Y units="km">-920.80015525133194</Y>
                        <Z units="km">5319.7741790506898</Z>
                        <X_DOT units="km/s">1.19049795542129</X_DOT>
                        <Y_DOT units="km/s">-7.5617710019101496</Y_DOT>
                        <Z_DOT units="km/s">-0.38857791545253001</Z_DOT>
                    </stateVector>
                    <stateVector>
                        <EPOCH>2021-290T16:53:00.000Z</EPOCH>
                        <X units="km">-3684.1751046316399</X>
                        <Y units="km">-2680.0970645541302</Y>
                        <Z units="km">5033.6772132132201</Z>
                        <X_DOT units="km/s">2.3868209495895001</X_DOT>
                        <Y_DOT units="km/s">-7.0095073015120297</Y_DOT>
                        <Z_DOT units="km/s">-1.9810570774812899</Z_DOT>
                    </stateVector>
                    
                </data>
            </segment>
        </body>
    </oem>
</ndm>
